{
    "links": {
        "self": "http://www.neowsapp.com/rest/v1/neo/54051086?api_key=iIulBulltgU6a56xZRHN4H3l9WmuAYTsLGpBGhQ2"
    },
    "id": "54051086",
    "neo_reference_id": "54051086",
    "name": "(2020 PA4)",
    "designation": "2020 PA4",
    "nasa_jpl_url": "http://ssd.jpl.nasa.gov/sbdb.cgi?sstr=54051086",
    "absolute_magnitude_h": 23.004,
    "estimated_diameter": {
        "kilometers": {
            "estimated_diameter_min": 0.0666430671,
            "estimated_diameter_max": 0.1490184284
        },
        "meters": {
            "estimated_diameter_min": 66.6430671466,
            "estimated_diameter_max": 149.0184283688
        },
        "miles": {
            "estimated_diameter_min": 0.0414100693,
            "estimated_diameter_max": 0.0925957299
        },
        "feet": {
            "estimated_diameter_min": 218.6452404172,
            "estimated_diameter_max": 488.9056205296
        }
    },
    "is_potentially_hazardous_asteroid": false,
    "close_approach_data": [
        {
            "close_approach_date": "2020-07-16",
            "close_approach_date_full": "2020-Jul-16 09:30",
            "epoch_date_close_approach": 1594891800000,
            "relative_velocity": {
                "kilometers_per_second": "4.1172052367",
                "kilometers_per_hour": "14821.9388522435",
                "miles_per_hour": "9209.776394051"
            },
            "miss_distance": {
                "astronomical": "0.2190904306",
                "lunar": "85.2261775034",
                "kilometers": "32775461.755142822",
                "miles": "20365727.5633100636"
            },
            "orbiting_body": "Earth"
        }
    ],
    "orbital_data": {
        "orbit_id": "1",
        "orbit_determination_date": "2020-08-16 10:12:05",
        "first_observation_date": "2020-08-14",
        "last_observation_date": "2020-08-16",
        "data_arc_in_days": 2,
        "observations_used": 13,
        "orbit_uncertainty": "9",
        "minimum_orbit_intersection": ".216634",
        "jupiter_tisserand_invariant": "3.280",
        "epoch_osculation": "2459076.5",
        "eccentricity": ".5128409010884125",
        "semi_major_axis": "2.47725933896036",
        "inclination": "5.338299233295268",
        "ascending_node_longitude": "27.58080103969818",
        "orbital_period": "1424.149685686541",
        "perihelion_distance": "1.206819427338244",
        "perihelion_argument": "267.8095059017935",
        "aphelion_distance": "3.747699250582476",
        "perihelion_time": "2459046.487161138057",
        "mean_anomaly": "7.586717954504123",
        "mean_motion": ".2527824171982699",
        "equinox": "J2000",
        "orbit_class": {
            "orbit_class_type": "AMO",
            "orbit_class_description": "Near-Earth asteroid orbits similar to that of 1221 Amor",
            "orbit_class_range": "1.017 AU < q (perihelion) < 1.3 AU"
        }
    },
    "is_sentry_object": false
}